{
  "type": "FeatureCollection",
  "features": [
    {
      "type": "Feature",
      "properties": {
        "norad_id": 37238,
        "name": "INTELSAT 17 (IS-17)",
        "group": "intelsat",
        "lat": -0.008622075407447942,
        "lon": -73.610014914777,
        "alt_km": 35782.02046611529,
        "timestamp": "2025-12-04T09:47:37.190291+00:00",
        "meta_object_name": "INTELSAT 17 (IS-17)",
        "meta_object_id": "2010-065B",
        "meta_epoch": "2025-12-03T21:56:38.683968",
        "meta_mean_motion": 1.00266634,
        "meta_eccentricity": 0.00025897,
        "meta_inclination": 0.0151,
        "meta_ra_of_asc_node": 284.4598,
        "meta_arg_of_pericenter": 301.7081,
        "meta_mean_anomaly": 241.9967,
        "meta_ephemeris_type": 0,
        "meta_classification_type": "U",
        "meta_norad_cat_id": 37238,
        "meta_element_set_no": 999,
        "meta_rev_at_epoch": 5129,
        "meta_bstar": 0,
        "meta_mean_motion_dot": 1.6e-07,
        "meta_mean_motion_ddot": 0,
        "tle_line1": "1 37238U 10065B   25337.91433662  .00000016  00000+0  00000+0 0  9994",
        "tle_line2": "2 37238   0.0151 284.4598 0002589 301.7081 241.9967  1.00266634 51299"
      },
      "geometry": {
        "type": "Point",
        "coordinates": [
          -73.610014914777,
          -0.008622075407447942
        ]
      }
    },
    {
      "type": "Feature",
      "properties": {
        "norad_id": 37392,
        "name": "INTELSAT 28 (IS-28)",
        "group": "intelsat",
        "lat": 1.2468136836401909,
        "lon": -171.37825987726546,
        "alt_km": 35780.15062323368,
        "timestamp": "2025-12-04T09:47:37.190303+00:00",
        "meta_object_name": "INTELSAT 28 (IS-28)",
        "meta_object_id": "2011-016A",
        "meta_epoch": "2025-12-04T01:35:25.103328",
        "meta_mean_motion": 1.00271095,
        "meta_eccentricity": 0.0004122,
        "meta_inclination": 1.3005,
        "meta_ra_of_asc_node": 85.1628,
        "meta_arg_of_pericenter": 173.4943,
        "meta_mean_anomaly": 166.6387,
        "meta_ephemeris_type": 0,
        "meta_classification_type": "U",
        "meta_norad_cat_id": 37392,
        "meta_element_set_no": 999,
        "meta_rev_at_epoch": 5132,
        "meta_bstar": 0,
        "meta_mean_motion_dot": -2.09e-06,
        "meta_mean_motion_ddot": 0,
        "tle_line1": "1 37392U 11016A   25338.06626277 -.00000209  00000+0  00000+0 0  9990",
        "tle_line2": "2 37392   1.3005  85.1628 0004122 173.4943 166.6387  1.00271095 51328"
      },
      "geometry": {
        "type": "Point",
        "coordinates": [
          -171.37825987726546,
          1.2468136836401909
        ]
      }
    },
    {
      "type": "Feature",
      "properties": {
        "norad_id": 37834,
        "name": "INTELSAT 18 (IS-18)",
        "group": "intelsat",
        "lat": 0.04142930990800356,
        "lon": 40.376162184069216,
        "alt_km": 35793.62784091017,
        "timestamp": "2025-12-04T09:47:37.190314+00:00",
        "meta_object_name": "INTELSAT 18 (IS-18)",
        "meta_object_id": "2011-056A",
        "meta_epoch": "2025-12-03T18:01:38.697312",
        "meta_mean_motion": 1.00271033,
        "meta_eccentricity": 0.00021013,
        "meta_inclination": 0.0165,
        "meta_ra_of_asc_node": 322.052,
        "meta_arg_of_pericenter": 292.2737,
        "meta_mean_anomaly": 268.919,
        "meta_ephemeris_type": 0,
        "meta_classification_type": "U",
        "meta_norad_cat_id": 37834,
        "meta_element_set_no": 999,
        "meta_rev_at_epoch": 5185,
        "meta_bstar": 0,
        "meta_mean_motion_dot": 7e-07,
        "meta_mean_motion_ddot": 0,
        "tle_line1": "1 37834U 11056A   25337.75114233  .00000070  00000+0  00000+0 0  9999",
        "tle_line2": "2 37834   0.0165 322.0520 0002101 292.2737 268.9190  1.00271033 51850"
      },
      "geometry": {
        "type": "Point",
        "coordinates": [
          40.376162184069216,
          0.04142930990800356
        ]
      }
    },
    {
      "type": "Feature",
      "properties": {
        "norad_id": 38098,
        "name": "INTELSAT 22 (IS-22)",
        "group": "intelsat",
        "lat": -0.018428390978411455,
        "lon": -67.51872529343834,
        "alt_km": 35780.27280427786,
        "timestamp": "2025-12-04T09:47:37.190327+00:00",
        "meta_object_name": "INTELSAT 22 (IS-22)",
        "meta_object_id": "2012-011A",
        "meta_epoch": "2025-12-03T20:09:40.873824",
        "meta_mean_motion": 1.0027102,
        "meta_eccentricity": 0.00017171,
        "meta_inclination": 0.0039,
        "meta_ra_of_asc_node": 1.7537,
        "meta_arg_of_pericenter": 256.602,
        "meta_mean_anomaly": 189.0931,
        "meta_ephemeris_type": 0,
        "meta_classification_type": "U",
        "meta_norad_cat_id": 38098,
        "meta_element_set_no": 999,
        "meta_rev_at_epoch": 523,
        "meta_bstar": 0,
        "meta_mean_motion_dot": -4.1e-07,
        "meta_mean_motion_ddot": 0,
        "tle_line1": "1 38098U 12011A   25337.84005641 -.00000041  00000+0  00000+0 0  9995",
        "tle_line2": "2 38098   0.0039   1.7537 0001717 256.6020 189.0931  1.00271020  5236"
      },
      "geometry": {
        "type": "Point",
        "coordinates": [
          -67.51872529343834,
          -0.018428390978411455
        ]
      }
    },
    {
      "type": "Feature",
      "properties": {
        "norad_id": 38356,
        "name": "INTELSAT 19 (IS-19)",
        "group": "intelsat",
        "lat": 0.032862155013969614,
        "lon": 26.405703044449858,
        "alt_km": 35795.70784103595,
        "timestamp": "2025-12-04T09:47:37.190339+00:00",
        "meta_object_name": "INTELSAT 19 (IS-19)",
        "meta_object_id": "2012-030A",
        "meta_epoch": "2025-12-03T17:54:54.751392",
        "meta_mean_motion": 1.0026956,
        "meta_eccentricity": 0.00034388,
        "meta_inclination": 0.0103,
        "meta_ra_of_asc_node": 319.4914,
        "meta_arg_of_pericenter": 298.7434,
        "meta_mean_anomaly": 249.3378,
        "meta_ephemeris_type": 0,
        "meta_classification_type": "U",
        "meta_norad_cat_id": 38356,
        "meta_element_set_no": 999,
        "meta_rev_at_epoch": 4849,
        "meta_bstar": 0,
        "meta_mean_motion_dot": -3.9e-07,
        "meta_mean_motion_ddot": 0,
        "tle_line1": "1 38356U 12030A   25337.74646703 -.00000039  00000+0  00000+0 0  9999",
        "tle_line2": "2 38356   0.0103 319.4914 0003438 298.7434 249.3378  1.00269560 48497"
      },
      "geometry": {
        "type": "Point",
        "coordinates": [
          26.405703044449858,
          0.032862155013969614
        ]
      }
    },
    {
      "type": "Feature",
      "properties": {
        "norad_id": 38740,
        "name": "INTELSAT 20 (IS-20)",
        "group": "intelsat",
        "lat": -0.026929961992382043,
        "lon": -71.10654405779208,
        "alt_km": 35793.792556807355,
        "timestamp": "2025-12-04T09:47:37.190351+00:00",
        "meta_object_name": "INTELSAT 20 (IS-20)",
        "meta_object_id": "2012-043A",
        "meta_epoch": "2025-12-03T21:56:38.683968",
        "meta_mean_motion": 1.00263504,
        "meta_eccentricity": 0.00041682,
        "meta_inclination": 0.0142,
        "meta_ra_of_asc_node": 338.7056,
        "meta_arg_of_pericenter": 201.9611,
        "meta_mean_anomaly": 289.9875,
        "meta_ephemeris_type": 0,
        "meta_classification_type": "U",
        "meta_norad_cat_id": 38740,
        "meta_element_set_no": 999,
        "meta_rev_at_epoch": 4879,
        "meta_bstar": 0,
        "meta_mean_motion_dot": 0,
        "meta_mean_motion_ddot": 0,
        "tle_line1": "1 38740U 12043A   25337.91433662  .00000000  00000+0  00000+0 0  9994",
        "tle_line2": "2 38740   0.0142 338.7056 0004168 201.9611 289.9875  1.00263504 48799"
      },
      "geometry": {
        "type": "Point",
        "coordinates": [
          -71.10654405779208,
          -0.026929961992382043
        ]
      }
    },
    {
      "type": "Feature",
      "properties": {
        "norad_id": 38749,
        "name": "INTELSAT 21 (IS-21)",
        "group": "intelsat",
        "lat": -0.013319418281679532,
        "lon": 162.3298744728528,
        "alt_km": 35785.39394033351,
        "timestamp": "2025-12-04T09:47:37.190363+00:00",
        "meta_object_name": "INTELSAT 21 (IS-21)",
        "meta_object_id": "2012-045A",
        "meta_epoch": "2025-12-03T08:20:36.826944",
        "meta_mean_motion": 1.00269041,
        "meta_eccentricity": 0.00024522,
        "meta_inclination": 0.0163,
        "meta_ra_of_asc_node": 324.7378,
        "meta_arg_of_pericenter": 278.7741,
        "meta_mean_anomaly": 256.082,
        "meta_ephemeris_type": 0,
        "meta_classification_type": "U",
        "meta_norad_cat_id": 38749,
        "meta_element_set_no": 999,
        "meta_rev_at_epoch": 4856,
        "meta_bstar": 0,
        "meta_mean_motion_dot": -2.66e-06,
        "meta_mean_motion_ddot": 0,
        "tle_line1": "1 38749U 12045A   25337.34764846 -.00000266  00000+0  00000+0 0  9998",
        "tle_line2": "2 38749   0.0163 324.7378 0002452 278.7741 256.0820  1.00269041 48565"
      },
      "geometry": {
        "type": "Point",
        "coordinates": [
          162.3298744728528,
          -0.013319418281679532
        ]
      }
    }
  ]
}